<?xml version="1.0" encoding="UTF-8"?>
<gpx version="1.1" creator="test" xmlns="http://www.topografix.com/GPX/1/1">
  <trk>
    <name>Morning Ridge Loop</name>
    <trkseg>
      <trkpt lat="39.0968" lon="-120.0324"></trkpt>
      <trkpt lat="39.1010" lon="-120.0400"></trkpt>
      <trkpt lat="39.1055" lon="-120.0450"></trkpt>
      <trkpt lat="39.1100" lon="-120.0380"></trkpt>
      <trkpt lat="39.1080" lon="-120.0300"></trkpt>
      <trkpt lat="39.0968" lon="-120.0324"></trkpt>
    </trkseg>
  </trk>
</gpx>
