<?xml version="1.0" encoding="UTF-8"?>
<gpx version="1.1" creator="Test">
  <trk>
    <name>Test Route</name>
    <trkseg>
      <trkpt lat="36.1069" lon="-112.1129">
        <ele>2100</ele>
      </trkpt>
      <trkpt lat="36.1089" lon="-112.1149">
        <ele>2110</ele>
      </trkpt>
      <trkpt lat="36.1109" lon="-112.1169">
        <ele>2120</ele>
      </trkpt>
      <trkpt lat="36.1129" lon="-112.1189">
        <ele>2130</ele>
      </trkpt>
      <trkpt lat="36.1149" lon="-112.1209">
        <ele>2140</ele>
      </trkpt>
    </trkseg>
  </trk>
</gpx>
